     2              NAVIGATION DATA                         RINEX VERSION / TYPE
CCRINEXN V1.6.0 UX  CDDIS               26-MAY-20 19:31     PGM / RUN BY / DATE 
IGS BROADCAST EPHEMERIS FILE                                COMMENT             
    0.6519D-08  0.2235D-07 -0.5960D-07 -0.1192D-06          ION ALPHA           
    0.8602D+05  0.9830D+05 -0.6554D+05 -0.5243D+06          ION BETA            
    0.186264514923D-08-0.266453525910D-14   147456     2107 DELTA-UTC: A0,A1,T,W
    18                                                      LEAP SECONDS        
                                                            END OF HEADER       
32 20  5 25 20  0  0.0 0.287618953735D-03 0.738964445190D-11 0.000000000000D+00
    0.105000000000D+03 0.121875000000D+01 0.482805825086D-08-0.180345915459D+01
    0.968575477600D-07 0.399124249816D-02 0.568479299545D-05 0.515370717239D+04
    0.158400000000D+06 0.279396772385D-07-0.112821986803D+01-0.102445483208D-06
    0.956446819872D+00 0.270406250000D+03-0.243957198322D+01-0.802819154926D-08
    0.442875590403D-10 0.100000000000D+01 0.210700000000D+04 0.000000000000D+00
    0.200000000000D+01 0.000000000000D+00 0.465661287308D-09 0.105000000000D+03
    0.151218000000D+06 0.400000000000D+01 0.000000000000D+00 0.000000000000D+00
 1 20  5 25 21 59 44.0-0.385123770684D-03-0.454747350886D-11 0.000000000000D+00
    0.100000000000D+01-0.121093750000D+03 0.394123559685D-08 0.270878385014D+01
   -0.642240047455D-05 0.990176061168D-02 0.705942511559D-05 0.515363260078D+04
    0.165584000000D+06-0.949949026108D-07 0.307511167858D+01-0.134110450745D-06
    0.980512689786D+00 0.253687500000D+03 0.779574571793D+00-0.762138889001D-08
   -0.131076888450D-09 0.100000000000D+01 0.210700000000D+04 0.000000000000D+00
    0.200000000000D+01 0.000000000000D+00 0.512227416039D-08 0.100000000000D+01
    0.164538000000D+06 0.400000000000D+01 0.000000000000D+00 0.000000000000D+00
14 20  5 25 21 59 44.0-0.104852952063D-04 0.261479726760D-11 0.000000000000D+00
    0.100000000000D+02 0.562500000000D+00 0.477948480793D-08-0.167057960052D+01
    0.651925802231D-07 0.114573030733D-01 0.555254518986D-05 0.515363767242D+04
    0.165584000000D+06 0.268220901489D-06-0.104074484972D+01 0.108033418655D-06
    0.960116583521D+00 0.272906250000D+03-0.191536535248D+01-0.796104604461D-08
   -0.925038518007D-10 0.100000000000D+01 0.210700000000D+04 0.000000000000D+00
    0.200000000000D+01 0.000000000000D+00-0.977888703346D-08 0.100000000000D+02
    0.163290000000D+06 0.000000000000D+00 0.000000000000D+00 0.000000000000D+00
21 20  5 25 21 59 44.0 0.330619513988D-05 0.488853402203D-11 0.000000000000D+00
    0.160000000000D+02-0.119375000000D+03 0.491734768441D-08 0.702605447000D+00
   -0.653229653835D-05 0.239113499411D-01 0.598840415478D-05 0.515514756584D+04
    0.165584000000D+06-0.227242708206D-06 0.300108000845D+01-0.322237610817D-06
    0.953429040775D+00 0.269906250000D+03-0.132654960162D+01-0.863357390872D-08
   -0.155006456641D-09 0.100000000000D+01 0.210700000000D+04 0.000000000000D+00
    0.200000000000D+01 0.000000000000D+00-0.102445483208D-07 0.160000000000D+02
    0.158418000000D+06 0.400000000000D+01 0.000000000000D+00 0.000000000000D+00
22 20  5 25 21 59 44.0-0.780969392508D-03 0.159161572810D-11 0.000000000000D+00
    0.220000000000D+02-0.277187500000D+02 0.501235164171D-08-0.231978238167D+01
   -0.147335231304D-05 0.708254775964D-02 0.992417335510D-05 0.515382859993D+04
    0.165584000000D+06 0.223517417908D-07-0.225440232566D+01 0.119209289551D-06
    0.930620582597D+00 0.169812500000D+03-0.114582935088D+01-0.801461955536D-08
    0.351443210449D-09 0.100000000000D+01 0.210700000000D+04 0.000000000000D+00
    0.200000000000D+01 0.000000000000D+00-0.181607902050D-07 0.220000000000D+02
    0.158448000000D+06 0.400000000000D+01 0.000000000000D+00 0.000000000000D+00
25 20  5 25 21 59 44.0 0.710505992174D-05 0.329691829393D-11 0.000000000000D+00
    0.180000000000D+02 0.122281250000D+03 0.414338687441D-08 0.106928020793D+01
    0.621378421783D-05 0.924344791565D-02 0.838004052639D-05 0.515355366135D+04
    0.165584000000D+06-0.115483999252D-06 0.974201789929D+00 0.577419996262D-07
    0.965712736715D+00 0.217906250000D+03 0.935600989182D+00-0.803497754621D-08
    0.585738684082D-10 0.100000000000D+01 0.210700000000D+04 0.000000000000D+00
    0.200000000000D+01 0.000000000000D+00 0.558793544769D-08 0.180000000000D+02
    0.165258000000D+06 0.400000000000D+01 0.000000000000D+00 0.000000000000D+00
 1 20  5 25 22  0  0.0-0.385127495974D-03-0.454747350886D-11 0.000000000000D+00
    0.103000000000D+03-0.121093750000D+03 0.394123559685D-08 0.271111772674D+01
   -0.642240047455D-05 0.990176678169D-02 0.705942511559D-05 0.515363260651D+04
    0.165600000000D+06-0.949949026108D-07 0.307511152644D+01-0.134110450745D-06
    0.980512694175D+00 0.253687500000D+03 0.779574500110D+00-0.762138889001D-08
   -0.131076888450D-09 0.100000000000D+01 0.210700000000D+04 0.000000000000D+00
    0.280000000000D+01 0.000000000000D+00 0.512227416039D-08 0.103000000000D+03
    0.158418000000D+06 0.400000000000D+01 0.000000000000D+00 0.000000000000D+00
 2 20  5 25 22  0  0.0-0.461766961962D-03-0.613908923697D-11 0.000000000000D+00
    0.380000000000D+02-0.143375000000D+03 0.450983070969D-08 0.295111767387D+01
   -0.716745853424D-05 0.197102620732D-01 0.555627048016D-05 0.515370928764D+04
    0.165600000000D+06 0.355765223503D-06 0.299888762821D+01-0.132247805595D-06
    0.959473822667D+00 0.267093750000D+03-0.162804385004D+01-0.784175521201D-08
   -0.244295890190D-09 0.100000000000D+01 0.210700000000D+04 0.000000000000D+00
    0.200000000000D+01 0.000000000000D+00-0.176951289177D-07 0.380000000000D+02
    0.158418000000D+06 0.400000000000D+01 0.000000000000D+00 0.000000000000D+00
 3 20  5 25 22  0  0.0-0.187549740076D-03-0.125055521494D-10 0.000000000000D+00
    0.410000000000D+02-0.220312500000D+02 0.432803742299D-08 0.168136183926D+01
   -0.120699405670D-05 0.285497319419D-02 0.100955367088D-04 0.515355223656D+04
    0.165600000000D+06-0.894069671631D-07-0.216801761141D+01 0.130385160446D-07
    0.965549460428D+00 0.187875000000D+03 0.703090576967D+00-0.777496671572D-08
    0.371801201298D-09 0.100000000000D+01 0.210700000000D+04 0.000000000000D+00
    0.200000000000D+01 0.000000000000D+00 0.186264514923D-08 0.410000000000D+02
    0.158418000000D+06 0.400000000000D+01 0.000000000000D+00 0.000000000000D+00
 4 20  5 25 22  0  0.0-0.940919853747D-04-0.488853402203D-11 0.000000000000D+00
    0.204000000000D+03 0.262500000000D+01 0.482270088485D-08-0.247446428664D+01
    0.894069671631D-07 0.749978236854D-03 0.561587512493D-05 0.515367079926D+04
    0.165600000000D+06-0.111758708954D-07-0.108874729392D+01 0.186264514923D-07
    0.959622923278D+00 0.270718750000D+03-0.258852904649D+01-0.805712132573D-08
   -0.492877673191D-10 0.100000000000D+01 0.210700000000D+04 0.000000000000D+00
    0.200000000000D+01 0.000000000000D+00-0.419095158577D-08 0.972000000000D+03
    0.158418000000D+06 0.400000000000D+01 0.000000000000D+00 0.000000000000D+00
 5 20  5 25 22  0  0.0-0.133682042360D-04-0.682121026330D-12 0.000000000000D+00
    0.160000000000D+02-0.378437500000D+02 0.464269338681D-08-0.645521792528D+00
   -0.200048089027D-05 0.589127792045D-02 0.101514160633D-04 0.515366525841D+04
    0.165600000000D+06-0.558793544769D-08-0.219988685167D+01 0.150874257088D-06
    0.952477387695D+00 0.177562500000D+03 0.793666729988D+00-0.796926052312D-08
    0.343942898031D-09 0.100000000000D+01 0.210700000000D+04 0.000000000000D+00
    0.200000000000D+01 0.000000000000D+00-0.111758708954D-07 0.160000000000D+02
    0.158418000000D+06 0.400000000000D+01 0.000000000000D+00 0.000000000000D+00
 6 20  5 25 22  0  0.0-0.277910847217D-03-0.648014975013D-11 0.000000000000D+00
    0.440000000000D+02-0.131562500000D+03 0.408231290186D-08 0.285046640550D+01
   -0.657141208649D-05 0.191641540732D-02 0.721961259842D-05 0.515355157852D+04
    0.165600000000D+06 0.931322574615D-07 0.306687256639D+01 0.912696123123D-07
    0.980071050910D+00 0.249687500000D+03-0.105220900285D+01-0.788032824730D-08
   -0.162863926793D-09 0.100000000000D+01 0.210700000000D+04 0.000000000000D+00
    0.200000000000D+01 0.000000000000D+00 0.419095158577D-08 0.440000000000D+02
    0.158418000000D+06 0.400000000000D+01 0.000000000000D+00 0.000000000000D+00
 7 20  5 25 22  0  0.0-0.289442017674D-03-0.875388650456D-11 0.000000000000D+00
    0.150000000000D+02 0.165000000000D+02 0.447482925174D-08 0.195211172463D+01
    0.767409801483D-06 0.138628417626D-01 0.982359051704D-05 0.515366808319D+04
    0.165600000000D+06-0.277534127235D-06-0.626828315173D-01-0.102445483208D-06
    0.953580122177D+00 0.188562500000D+03-0.239645416689D+01-0.785818446778D-08
   -0.516450083648D-09 0.100000000000D+01 0.210700000000D+04 0.000000000000D+00
    0.200000000000D+01 0.000000000000D+00-0.111758708954D-07 0.150000000000D+02
    0.158418000000D+06 0.400000000000D+01 0.000000000000D+00 0.000000000000D+00
 8 20  5 25 22  0  0.0-0.352626666427D-04-0.136424205266D-11 0.000000000000D+00
    0.750000000000D+02 0.101250000000D+02 0.456054710795D-08-0.130265447034D+01
    0.301748514175D-06 0.534205837175D-02 0.102818012237D-05 0.515367271805D+04
    0.165600000000D+06 0.502914190292D-07 0.200527193960D+01-0.521540641785D-07
    0.969479234359D+00 0.362156250000D+03-0.753498939170D-01-0.836963434315D-08
    0.168578450541D-09 0.100000000000D+01 0.210700000000D+04 0.000000000000D+00
    0.200000000000D+01 0.000000000000D+00 0.512227416039D-08 0.750000000000D+02
    0.158418000000D+06 0.400000000000D+01 0.000000000000D+00 0.000000000000D+00
